ONEWEB-0410             
1 51622U 22012A   26162.59800132  .00000042  00000+0  75420-4 0  9995
2 51622  87.9146   6.9687 0003144  79.0970 281.0516 13.17648245212967
ONEWEB-0411             
1 51623U 22012B   26162.66796090 -.00000378  00000+0 -11188-2 0  9994
2 51623  87.8842  37.3657 0001571  99.4831 260.6474 13.10370078208565
ONEWEB-0415             
1 51624U 22012C   26162.66464810 -.00000185  00000+0 -56681-3 0  9991
2 51624  87.8836  37.3655 0001766  90.3566 269.7764 13.10369901208563
ONEWEB-0416             
1 51625U 22012D   26162.67626684 -.00000597  00000+0 -17474-2 0  9995
2 51625  87.8836  37.3816 0001992  94.7374 265.3981 13.10372312208607
ONEWEB-0422             
1 51626U 22012E   26162.60813157  .00000033  00000+0  51552-4 0  9992
2 51626  87.9142   6.9680 0001257  78.5445 281.5828 13.17648577213076
ONEWEB-0423             
1 51627U 22012F   26162.60138628  .00000051  00000+0  99192-4 0  9998
2 51627  87.9139   6.9751 0001927  84.2012 275.9339 13.17649839212963
ONEWEB-0425             
1 51628U 22012G   26162.68623078 -.00000537  00000+0 -15746-2 0  9997
2 51628  87.8840  37.3632 0002101  78.0921 282.0442 13.10374806208605
ONEWEB-0428             
1 51629U 22012H   26162.66630357 -.00000335  00000+0 -99613-3 0  9996
2 51629  87.8833  37.3740 0001771  80.7689 279.3638 13.10370179208561
ONEWEB-0431             
1 51630U 22012J   26162.63630430  .00000676  00000+0  19011-2 0  9996
2 51630  87.8840  37.3724 0001382  99.7655 260.3628 13.10374317208617
ONEWEB-0434             
1 51631U 22012K   26162.68968467 -.00000401  00000+0 -11850-2 0  9997
2 51631  87.8845  37.3868 0002370  73.8908 286.2480 13.10375051208602
ONEWEB-0435             
1 51632U 22012L   26162.62147932  .00000043  00000+0  88242-4 0  9999
2 51632  87.8837  37.3870 0001434  79.9405 280.1885 13.10373862208583
ONEWEB-0436             
1 51633U 22012M   26162.59293727 -.00000018  00000+0 -80089-4 0  9995
2 51633  87.9145   6.9583 0001642  86.8719 273.2600 13.17648398212945
ONEWEB-0438             
1 51634U 22012N   26162.68124242 -.00000646  00000+0 -18875-2 0  9990
2 51634  87.8838  37.3777 0001990  80.3710 279.7643 13.10373218208620
ONEWEB-0439             
1 51635U 22012P   26162.68457508  .00000008  00000+0 -13075-4 0  9995
2 51635  87.8837  37.3648 0001816  81.6083 278.5250 13.10370901208606
ONEWEB-0442             
1 51636U 22012Q   26162.96503082  .00000020  00000+0  18758-4 0  9992
2 51636  87.9137   6.9170 0002403  83.8096 276.3309 13.17649090212986
ONEWEB-0443             
1 51637U 22012R   26162.60474863  .00000075  00000+0  15917-3 0  9991
2 51637  87.9134   6.9902 0001862  76.2619 283.8719 13.17649144212980
ONEWEB-0444             
1 51638U 22012S   26162.67460219 -.00000626  00000+0 -18296-2 0  9995
2 51638  87.8835  37.3650 0001829  76.6969 283.4362 13.10371932208616
ONEWEB-0445             
1 51639U 22012T   26162.69619392 -.00000109  00000+0 -34770-3 0  9998
2 51639  87.8848  37.3488 0001816  88.7869 271.3466 13.10375544208624
ONEWEB-0446             
1 51640U 22012U   26162.67293856 -.00000511  00000+0 -15005-2 0  9997
2 51640  87.8835  37.3823 0001846  86.6782 273.4557 13.10371619208600
ONEWEB-0448             
1 51641U 22012V   26162.67792562 -.00000647  00000+0 -18912-2 0  9996
2 51641  87.8834  37.3779 0001788  79.1691 280.9637 13.10373052208572
ONEWEB-0449             
1 51642U 22012W   26162.68290323 -.00000580  00000+0 -16971-2 0  9995
2 51642  87.8840  37.3625 0002195  76.2304 283.9068 13.10373823208580
ONEWEB-0451             
1 51643U 22012X   26162.58957421  .00000079  00000+0  17045-3 0  9999
2 51643  87.9147   6.9562 0002044  82.9359 277.2005 13.17649303212927
ONEWEB-0452             
1 51644U 22012Y   26162.96755596  .00000052  00000+0  10134-3 0  9994
2 51644  87.9137   6.9183 0001960  77.6344 282.5007 13.17648954212985
ONEWEB-0456             
1 51646U 22012AA  26162.69285221 -.00000203  00000+0 -61904-3 0  9990
2 51646  87.8849  37.3474 0001664  79.6097 280.5218 13.10374646208620
ONEWEB-0457             
1 51647U 22012AB  26162.66948097 -.00000475  00000+0 -13976-2 0  9991
2 51647  87.8833  37.3707 0002112  89.7866 270.3504 13.10369422208629
ONEWEB-0458             
1 51648U 22012AC  26162.69120736 -.00000317  00000+0 -94531-3 0  9999
2 51648  87.8849  37.3538 0001893  75.9404 284.1934 13.10374951208587
ONEWEB-0461             
1 51649U 22012AD  26162.60981030  .00000053  00000+0  10441-3 0  9996
2 51649  87.9144   6.9664 0001922  89.5395 270.5957 13.17647612213159
ONEWEB-0463             
1 51650U 22012AE  26162.59125851  .00000064  00000+0  13142-3 0  9990
2 51650  87.9134   6.9929 0001948  90.8071 269.3284 13.17648660212936
ONEWEB-0464             
1 51651U 22012AF  26162.68788447 -.00000451  00000+0 -13293-2 0  9995
2 51651  87.8843  37.3767 0001637  73.9186 286.2122 13.10374860208604
ONEWEB-0468             
1 51652U 22012AG  26162.61817333 -.00000148  00000+0 -45951-3 0  9996
2 51652  87.8839  37.3846 0001586  72.7183 287.4118 13.10375720208575
